[{"OBJECT_NAME":"STARLINK-30600","OBJECT_ID":"2023-161D","EPOCH":"2026-03-09T13:48:53.294112","MEAN_MOTION":15.30187522,"ECCENTRICITY":0.0001272,"INCLINATION":53.1609,"RA_OF_ASC_NODE":166.0889,"ARG_OF_PERICENTER":107.9519,"MEAN_ANOMALY":252.1621,"EPHEMERIS_TYPE":0,"CLASSIFICATION_TYPE":"U","NORAD_CAT_ID":58100,"ELEMENT_SET_NO":999,"REV_AT_EPOCH":13440,"BSTAR":1.1243e-5,"MEAN_MOTION_DOT":-2.6e-7,"MEAN_MOTION_DDOT":0},{"OBJECT_NAME":"OBJECT B","OBJECT_ID":"2024-153B","EPOCH":"2026-03-09T23:15:18.632160","MEAN_MOTION":15.30512917,"ECCENTRICITY":0.00113423,"INCLINATION":97.6622,"RA_OF_ASC_NODE":204.9195,"ARG_OF_PERICENTER":149.8438,"MEAN_ANOMALY":210.3457,"EPHEMERIS_TYPE":0,"CLASSIFICATION_TYPE":"U","NORAD_CAT_ID":60746,"ELEMENT_SET_NO":999,"REV_AT_EPOCH":8476,"BSTAR":0.00066193599,"MEAN_MOTION_DOT":0.00019515,"MEAN_MOTION_DDOT":0}]
